{
  "type": "FeatureCollection",
  "features": [
    {
      "type": "Feature",
      "properties": {
        "norad_id": 2807,
        "name": "OPS 7218 (TRANSIT 16)",
        "group": "nnss",
        "lat": -49.12858736941038,
        "lon": -6.248230214967601,
        "alt_km": 1092.6164986698104,
        "timestamp": "2025-12-09T07:41:33.476479+00:00",
        "meta_object_name": "OPS 7218 (TRANSIT 16)",
        "meta_object_id": "1967-048A",
        "meta_epoch": "2025-12-08T23:05:02.632128",
        "meta_mean_motion": 13.50721151,
        "meta_eccentricity": 0.00217945,
        "meta_inclination": 89.6731,
        "meta_ra_of_asc_node": 354.1416,
        "meta_arg_of_pericenter": 124.2049,
        "meta_mean_anomaly": 243.6519,
        "meta_ephemeris_type": 0,
        "meta_classification_type": "U",
        "meta_norad_cat_id": 2807,
        "meta_element_set_no": 999,
        "meta_rev_at_epoch": 88225,
        "meta_bstar": 0.00020711487,
        "meta_mean_motion_dot": 1.44e-06,
        "meta_mean_motion_ddot": 0,
        "tle_line1": "1 02807U 67048A   25342.96183602  .00000144  00000+0  20711-3 0  9995",
        "tle_line2": "2 02807  89.6731 354.1416 0021794 124.2049 243.6519 13.50721151882253"
      },
      "geometry": {
        "type": "Point",
        "coordinates": [
          -6.248230214967601,
          -49.12858736941038
        ]
      }
    },
    {
      "type": "Feature",
      "properties": {
        "norad_id": 2965,
        "name": "OPS 4947 (TRANSIT 17)",
        "group": "nnss",
        "lat": -17.6936620280149,
        "lon": 24.457062230286105,
        "alt_km": 1068.9091457911081,
        "timestamp": "2025-12-09T07:41:33.476505+00:00",
        "meta_object_name": "OPS 4947 (TRANSIT 17)",
        "meta_object_id": "1967-092A",
        "meta_epoch": "2025-12-08T16:23:38.513760",
        "meta_mean_motion": 13.53452092,
        "meta_eccentricity": 0.00459599,
        "meta_inclination": 89.2499,
        "meta_ra_of_asc_node": 24.745,
        "meta_arg_of_pericenter": 246.6699,
        "meta_mean_anomaly": 231.189,
        "meta_ephemeris_type": 0,
        "meta_classification_type": "U",
        "meta_norad_cat_id": 2965,
        "meta_element_set_no": 999,
        "meta_rev_at_epoch": 87042,
        "meta_bstar": 0.00027138776,
        "meta_mean_motion_dot": 1.94e-06,
        "meta_mean_motion_ddot": 0,
        "tle_line1": "1 02965U 67092A   25342.68308465  .00000194  00000+0  27139-3 0  9990",
        "tle_line2": "2 02965  89.2499  24.7450 0045959 246.6699 231.1890 13.53452092870420"
      },
      "geometry": {
        "type": "Point",
        "coordinates": [
          24.457062230286105,
          -17.6936620280149
        ]
      }
    },
    {
      "type": "Feature",
      "properties": {
        "norad_id": 3133,
        "name": "OPS 7034 (TRANSIT 18)",
        "group": "nnss",
        "lat": 25.961312641219315,
        "lon": 93.64253965181307,
        "alt_km": 1016.017516685667,
        "timestamp": "2025-12-09T07:41:33.476519+00:00",
        "meta_object_name": "OPS 7034 (TRANSIT 18)",
        "meta_object_id": "1968-012A",
        "meta_epoch": "2025-12-08T20:34:01.224768",
        "meta_mean_motion": 13.51564436,
        "meta_eccentricity": 0.00734771,
        "meta_inclination": 90.0276,
        "meta_ra_of_asc_node": 273.6278,
        "meta_arg_of_pericenter": 180.4121,
        "meta_mean_anomaly": 239.6766,
        "meta_ephemeris_type": 0,
        "meta_classification_type": "U",
        "meta_norad_cat_id": 3133,
        "meta_element_set_no": 999,
        "meta_rev_at_epoch": 56866,
        "meta_bstar": 0.00029762797,
        "meta_mean_motion_dot": 2.07e-06,
        "meta_mean_motion_ddot": 0,
        "tle_line1": "1 03133U 68012A   25342.85695862  .00000207  00000+0  29763-3 0  9990",
        "tle_line2": "2 03133  90.0276 273.6278 0073477 180.4121 239.6766 13.51564436568664"
      },
      "geometry": {
        "type": "Point",
        "coordinates": [
          93.64253965181307,
          25.961312641219315
        ]
      }
    },
    {
      "type": "Feature",
      "properties": {
        "norad_id": 4507,
        "name": "NNSS 19 (TRANSIT 19)",
        "group": "nnss",
        "lat": 51.27172023853109,
        "lon": 54.53859791480452,
        "alt_km": 1189.3680354896824,
        "timestamp": "2025-12-09T07:41:33.476531+00:00",
        "meta_object_name": "NNSS 19 (TRANSIT 19)",
        "meta_object_id": "1970-067A",
        "meta_epoch": "2025-12-08T23:56:26.901312",
        "meta_mean_motion": 13.51313694,
        "meta_eccentricity": 0.01707761,
        "meta_inclination": 90.0057,
        "meta_ra_of_asc_node": 234.5313,
        "meta_arg_of_pericenter": 304.3138,
        "meta_mean_anomaly": 54.195,
        "meta_ephemeris_type": 0,
        "meta_classification_type": "U",
        "meta_norad_cat_id": 4507,
        "meta_element_set_no": 999,
        "meta_rev_at_epoch": 72171,
        "meta_bstar": 0.00029264395,
        "meta_mean_motion_dot": 2.16e-06,
        "meta_mean_motion_ddot": 0,
        "tle_line1": "1 04507U 70067A   25342.99753358  .00000216  00000+0  29264-3 0  9995",
        "tle_line2": "2 04507  90.0057 234.5313 0170776 304.3138  54.1950 13.51313694721718"
      },
      "geometry": {
        "type": "Point",
        "coordinates": [
          54.53859791480452,
          51.27172023853109
        ]
      }
    },
    {
      "type": "Feature",
      "properties": {
        "norad_id": 6909,
        "name": "NNSS 20 (TRANSIT 20)",
        "group": "nnss",
        "lat": -47.146653617266885,
        "lon": -105.04984605952404,
        "alt_km": 1082.7458362674633,
        "timestamp": "2025-12-09T07:41:33.476543+00:00",
        "meta_object_name": "NNSS 20 (TRANSIT 20)",
        "meta_object_id": "1973-081A",
        "meta_epoch": "2025-12-08T19:40:02.097408",
        "meta_mean_motion": 13.71431673,
        "meta_eccentricity": 0.01566057,
        "meta_inclination": 89.8561,
        "meta_ra_of_asc_node": 255.1129,
        "meta_arg_of_pericenter": 89.9209,
        "meta_mean_anomaly": 271.9898,
        "meta_ephemeris_type": 0,
        "meta_classification_type": "U",
        "meta_norad_cat_id": 6909,
        "meta_element_set_no": 999,
        "meta_rev_at_epoch": 80307,
        "meta_bstar": 0.00038171998,
        "meta_mean_motion_dot": 3.86e-06,
        "meta_mean_motion_ddot": 0,
        "tle_line1": "1 06909U 73081A   25342.81946872  .00000386  00000+0  38172-3 0  9994",
        "tle_line2": "2 06909  89.8561 255.1129 0156605  89.9209 271.9898 13.71431673803076"
      },
      "geometry": {
        "type": "Point",
        "coordinates": [
          -105.04984605952404,
          -47.146653617266885
        ]
      }
    },
    {
      "type": "Feature",
      "properties": {
        "norad_id": 10457,
        "name": "TRANSAT",
        "group": "nnss",
        "lat": 17.092855996586692,
        "lon": -101.39023542854898,
        "alt_km": 1061.68368084551,
        "timestamp": "2025-12-09T07:41:33.476554+00:00",
        "meta_object_name": "TRANSAT",
        "meta_object_id": "1977-106A",
        "meta_epoch": "2025-12-08T20:48:25.255872",
        "meta_mean_motion": 13.48942788,
        "meta_eccentricity": 0.00250257,
        "meta_inclination": 89.6481,
        "meta_ra_of_asc_node": 78.7341,
        "meta_arg_of_pericenter": 200.8662,
        "meta_mean_anomaly": 280.8023,
        "meta_ephemeris_type": 0,
        "meta_classification_type": "U",
        "meta_norad_cat_id": 10457,
        "meta_element_set_no": 999,
        "meta_rev_at_epoch": 36691,
        "meta_bstar": 0.00022884886,
        "meta_mean_motion_dot": 1.54e-06,
        "meta_mean_motion_ddot": 0,
        "tle_line1": "1 10457U 77106A   25342.86695898  .00000154  00000+0  22885-3 0  9990",
        "tle_line2": "2 10457  89.6481  78.7341 0025025 200.8662 280.8023 13.48942788366915"
      },
      "geometry": {
        "type": "Point",
        "coordinates": [
          -101.39023542854898,
          17.092855996586692
        ]
      }
    },
    {
      "type": "Feature",
      "properties": {
        "norad_id": 12458,
        "name": "NOVA 1",
        "group": "nnss",
        "lat": 19.70289659417736,
        "lon": 91.48633517118955,
        "alt_km": 1172.778028977401,
        "timestamp": "2025-12-09T07:41:33.476565+00:00",
        "meta_object_name": "NOVA 1",
        "meta_object_id": "1981-044A",
        "meta_epoch": "2025-12-08T21:17:39.461856",
        "meta_mean_motion": 13.23277871,
        "meta_eccentricity": 0.00157974,
        "meta_inclination": 89.8524,
        "meta_ra_of_asc_node": 91.4396,
        "meta_arg_of_pericenter": 113.4521,
        "meta_mean_anomaly": 3.7468,
        "meta_ephemeris_type": 0,
        "meta_classification_type": "U",
        "meta_norad_cat_id": 12458,
        "meta_element_set_no": 999,
        "meta_rev_at_epoch": 15135,
        "meta_bstar": 0.0002470035,
        "meta_mean_motion_dot": 1.14e-06,
        "meta_mean_motion_ddot": 0,
        "tle_line1": "1 12458U 81044A   25342.88726229  .00000114  00000+0  24700-3 0  9998",
        "tle_line2": "2 12458  89.8524  91.4396 0015797 113.4521   3.7468 13.23277871151350"
      },
      "geometry": {
        "type": "Point",
        "coordinates": [
          91.48633517118955,
          19.70289659417736
        ]
      }
    }
  ]
}